{
  "type": "FeatureCollection",
  "name": "agricultural_parcel",
  "crs": {
    "type": "name",
    "properties": {
      "name": "urn:ogc:def:crs:OGC:1.3:CRS84"
    }
  },
  "features": [
    {
      "type": "Feature",
      "properties": {
        "asset_id": "ALV-TN-AG02",
        "name": "Palar River Basin Farmland Tract",
        "region": "Kanchipuram, Tamil Nadu",
        "land_use_class": "agricultural_prime",
        "baseline_market_value_inr": 8200000.0,
        "utm_epsg": "EPSG:32644",
        "vertical_datum_observed": "EGM2008",
        "case_archetype": "agricultural_environmental_stress",
        "description": "Multi-crop agricultural tract evaluated for NDVI/NDMI seasonal vegetative and soil moisture stress."
      },
      "geometry": {
        "type": "Polygon",
        "coordinates": [
          [
            [79.7120, 12.8250],
            [79.7165, 12.8250],
            [79.7165, 12.8295],
            [79.7120, 12.8295],
            [79.7120, 12.8250]
          ]
        ]
      }
    }
  ]
}
