{
  "type": "FeatureCollection",
  "name": "coastal_periurban_parcel",
  "crs": {
    "type": "name",
    "properties": {
      "name": "urn:ogc:def:crs:OGC:1.3:CRS84"
    }
  },
  "features": [
    {
      "type": "Feature",
      "properties": {
        "asset_id": "ALV-TN-CP01",
        "name": "Ennore Coastal Estuary Land Parcel",
        "region": "Chennai North / Thiruvallur, Tamil Nadu",
        "land_use_class": "periurban_residential",
        "baseline_market_value_inr": 18500000.0,
        "utm_epsg": "EPSG:32644",
        "vertical_datum_observed": "EGM2008",
        "case_archetype": "coastal_slr_subsidence",
        "description": "Low-lying coastal asset with tidal estuarine exposure and active coastal ground motion."
      },
      "geometry": {
        "type": "Polygon",
        "coordinates": [
          [
            [80.3125, 13.2450],
            [80.3155, 13.2450],
            [80.3155, 13.2480],
            [80.3125, 13.2480],
            [80.3125, 13.2450]
          ]
        ]
      }
    }
  ]
}
